OBJECT_NAME,OBJECT_ID,EPOCH,MEAN_MOTION,ECCENTRICITY,INCLINATION,RA_OF_ASC_NODE,ARG_OF_PERICENTER,MEAN_ANOMALY,EPHEMERIS_TYPE,CLASSIFICATION_TYPE,NORAD_CAT_ID,ELEMENT_SET_NO,REV_AT_EPOCH,BSTAR,MEAN_MOTION_DOT,MEAN_MOTION_DDOT
PLEIADES NEO 3,2021-034A,2026-06-05T13:40:50.363040,14.81673923,.0001394,97.8935,231.5042,99.1938,260.9433,0,U,48268,999,27593,.42291E-4,.281E-5,0
PLEIADES NEO 4,2021-073E,2026-06-05T19:21:11.600064,14.81672211,.0001345,97.8935,231.7326,95.3769,264.7597,0,U,49070,999,25968,.16712E-3,.1263E-4,0
LANDSAT 9,2021-088A,2026-06-05T01:00:21.923424,14.57126109,.00015032,98.1854,226.3638,95.7050,264.4320,0,U,49260,999,24923,.10362107E-3,.422E-5,0
CSG-2,2022-008A,2026-06-05T19:27:34.339104,14.82167011,.0001473,97.8883,340.5732,81.7636,278.3744,0,U,51444,999,23490,.10175E-3,.758E-5,0
GAOFEN-12 03,2022-069A,2026-06-05T19:55:28.092000,14.80014012,.0001489,97.8289,44.9860,109.9169,250.2204,0,U,52912,999,21293,.60637E-4,.408E-5,0
SWOT,2022-173A,2026-06-05T18:28:41.442240,14.00168227,.0000175,77.6112,50.7228,101.7062,258.4110,0,U,54754,999,17755,.35471E-5,.3E-7,0
GAOFEN-12 04,2023-123A,2026-06-05T20:21:37.878048,14.80206362,.0001771,97.9129,75.0288,88.3914,271.7501,0,U,57654,999,15095,.15469E-3,.1124E-4,0
PARS 1,2024-039Q,2026-06-05T20:31:33.727008,15.45484486,.0010671,97.4824,137.4207,145.8932,214.3004,0,U,59065,999,12689,.25433E-3,.12126E-3,0
RESURS-P 4,2024-061A,2026-06-05T20:00:16.368192,15.32064564,.0001295,97.2749,104.9310,131.2573,228.8781,0,U,59371,999,12202,.11575E-3,.3507E-4,0
LEGION 1,2024-081A,2026-06-05T17:55:32.394144,15.16585760,.001052,97.5014,234.7266,54.6194,305.6020,0,U,59625,999,11580,.2273E-3,.4377E-4,0
LEGION 2,2024-081B,2026-06-05T18:38:29.586048,15.16566026,.0011863,97.5014,234.8541,23.7308,336.4470,0,U,59626,999,11581,.24228E-3,.4669E-4,0
ALOS-4 (DAICHI-4),2024-123A,2026-06-05T19:06:30.620736,14.79471807,.000169,97.9239,254.1298,98.9452,261.1951,0,U,60182,999,10419,.23557E-3,.1708E-4,0
LEGION 3,2024-146A,2026-06-05T19:07:47.174592,15.15949105,.0006787,45.0006,91.6381,97.2910,262.8740,0,U,60452,999,10029,.26477E-3,.4905E-4,0
LEGION 4,2024-146B,2026-06-05T11:17:42.565920,15.15948413,.0013965,44.9995,185.2997,247.5804,112.3596,0,U,60453,999,9909,.20345E-3,.3712E-4,0
SENTINEL-2C,2024-157A,2026-06-05T11:51:39.948768,14.30814562,.0001225,98.5692,231.4412,78.7103,281.4218,0,U,60989,999,9131,.62696E-4,.121E-5,0
IONOSFERA-M 1,2024-199A,2026-06-05T19:13:24.919104,14.22752142,.0001582,98.7186,30.0927,125.7117,234.4208,0,U,61735,999,12608,.4247E-4,.51E-6,0
IONOSFERA-M 2,2024-199B,2026-06-05T20:02:50.436672,14.22755429,.000148,98.7185,30.0374,49.0271,311.1035,0,U,61736,999,12921,.47286E-4,.62E-6,0
PRSC-EO1,2025-012A,2026-06-05T18:50:56.296320,15.17617531,.0004308,97.4223,229.4677,306.3423,53.7413,0,U,62725,999,7646,.23021E-3,.4564E-4,0
BIOMASS,2025-090A,2026-06-05T08:59:00.690720,14.67539402,.0001276,98.0746,343.8629,90.9912,269.1439,0,U,63772,999,5895,.15115E-3,.809E-5,0
GOSAT-GW (IBUKI GW),2025-141A,2026-06-05T20:55:42.582432,14.67551833,.0001418,98.0572,94.3731,83.1050,277.0315,0,U,64694,999,5018,.2255E-3,.1231E-4,0
IONOSFERA-M 3,2025-155A,2026-06-05T20:13:41.134080,14.21484458,.000032,98.6025,119.0339,186.4473,173.6700,0,U,64876,999,4479,.50537E-4,.68E-6,0
IONOSFERA-M 4,2025-155B,2026-06-05T19:22:31.405152,14.21486634,.0000665,98.6019,118.9167,112.6356,247.4892,0,U,64877,999,4478,.47641E-4,.61E-6,0
MICROCARB,2025-156A,2026-06-05T19:12:22.762080,14.72313824,.0015229,97.9831,234.1406,311.8780,48.1127,0,U,64899,999,4629,.10087E-3,.589E-5,0
CO3D 3,2025-156B,2026-06-05T19:12:24.912576,15.20194610,.0001155,97.4318,235.6583,150.2068,209.9234,0,U,64900,999,4780,.23418E-3,.5004E-4,0
CO3D 4,2025-156C,2026-06-05T19:12:38.943936,15.20215222,.0000908,97.4326,235.6571,36.6403,323.4894,0,U,64901,999,4780,.23279E-3,.4977E-4,0
CO3D 2,2025-156D,2026-06-05T18:24:36.730656,15.20201523,.0001423,97.4324,235.5237,121.1343,239.0031,0,U,64902,999,4779,.34013E-3,.7303E-4,0
CO3D 1,2025-156E,2026-06-05T15:15:16.030080,15.20210331,.0001151,97.4325,235.3939,120.3894,239.7455,0,U,64903,999,4777,.24831E-3,.5313E-4,0
PRSC-S1,2025-164A,2026-06-05T19:03:35.936352,15.06348889,.0007638,41.1315,351.9726,277.3909,82.6036,0,U,65055,999,4671,.3757E-3,.5455E-4,0
SENTINEL-6B,2025-264A,2026-06-05T08:59:11.693760,12.80929621,.0008059,66.0384,159.7138,269.2968,90.7124,0,U,66514,999,2565,.14251E-4,-.58E-6,0
CAS500-3,2025-274F,2026-06-05T12:24:20.028672,14.88292321,.0006078,97.7445,84.8336,141.4201,218.7451,0,U,66655,999,2841,.15804E-3,.1407E-4,0
CSG-3,2026-001A,2026-06-05T12:28:21.672192,14.82160790,.0001319,97.8886,340.2907,93.7978,266.3385,0,U,67304,999,2273,.5139E-4,.357E-5,0
PRSC-E03,2026-092A,2026-06-05T10:58:27.389280,15.06611665,.0005309,37.9993,158.8474,285.3990,74.6185,0,U,68835,999,618,.15175E-3,.2183E-4,0
CAS500-2,2026-100AK,2026-06-05T10:30:59.940864,15.20442796,.0011589,97.4079,54.4969,71.1430,289.1061,0,U,69013,999,502,.28564E-3,.6175E-4,0
